AQUA                    
1 27424U 02022A   26079.90158447  .00000805  00000+0  17033-3 0  9996
2 27424  98.4195  47.4723 0000812 113.7632 269.5565 14.62001336270371
CZ-4B R/B               
1 27432U 02024C   26079.63009840  .00000038  00000+0  42639-4 0  9998
2 27432  98.8814 132.9805 0049919 353.1890 160.4301 14.14549584230787
MIDORI II (ADEOS-II)    
1 27597U 02056A   26079.86442207  .00000257  00000+0  11876-3 0  9999
2 27597  98.7789  38.4206 0001125  28.4412 331.6831 14.29293116211897
H-2A R/B                
1 27601U 02056E   26079.87201459  .00000232  00000+0  95576-4 0  9991
2 27601  98.3223  39.8132 0071098 127.6479 287.3113 14.33767641215715
CZ-4B R/B               
1 28059U 03049C   26079.86772344  .00000299  00000+0  80192-4 0  9998
2 28059  98.6889  75.2120 0047797 196.2889 163.6773 14.55029888188222
CZ-2C R/B               
1 28222U 04012C   26079.15822986  .00041551  00000+0  41047-3 0  9992
2 28222  97.7200 145.4513 0012937 266.6030  93.3749 15.65689873205911
SL-16 R/B               
1 28353U 04021B   26079.77103477 -.00000160  00000+0 -58358-4 0  9999
2 28353  70.9998 209.2369 0004594 355.9383   4.1702 14.14593505124406
CZ-4B R/B               
1 28415U 04035C   26079.57550428  .00007436  00000+0  26128-3 0  9993
2 28415  97.3474 113.6877 0030110 291.0268  68.7752 15.29239279181578
CZ-2C R/B               
1 28480U 04046B   26079.70454634  .00000124  00000+0  60703-4 0  9999
2 28480  98.1980 354.0025 0140398 122.0427 239.4481 14.26995708110072
ARIANE 5 R/B            
1 28499U 04049H   26079.74834551  .00000679  00000+0  81601-4 0  9991
2 28499  98.2642 248.6206 0083218 315.8543  43.6049 14.85284918147439
CZ-2D R/B               
1 28738U 05024B   26079.28897950  .00029756  00000+0  35450-3 0  9999
2 28738  97.3582  94.8309 0003983  16.3856 343.7530 15.61045673141435
ALOS (DAICHI)           
1 28931U 06002A   26079.87162479  .00001147  00000+0  20030-3 0  9999
2 28931  98.1238  35.7724 0000702  85.8225 274.3061 14.69842990 75123
